SAR-LUPE 2              
1 31797U 07030A   26194.84516870  .00019700  00000+0  31071-3 0  9999
2 31797  98.1058 302.6682 0004721 207.1327 152.9678 15.53581762 61078
SAPPHIRE                
1 39088U 13009C   26194.86262919  .00000038  00000+0  28239-4 0  9994
2 39088  98.4273  13.6866 0011506 163.7646 196.3910 14.35247349700401
PRAETORIAN SDA_602      
1 65565U 25203A   26194.84466330  .00000018  00000+0  58470-5 0  9992
2 65565  81.3042 346.0860 0007031 120.7068 239.4782 13.83887779 42382
PRAETORIAN SDA_603      
1 65566U 25203B   26194.80072478  .00000090  00000+0  70214-4 0  9994
2 65566  81.3048 346.0483 0010732 118.3107 241.9134 13.83961982 42387
PRAETORIAN SDA_604      
1 65567U 25203C   26194.83737169  .00000023  00000+0  10508-4 0  9999
2 65567  81.3064 346.4681 0006541 124.4511 235.7264 13.83049978 42365
PRAETORIAN SDA_605      
1 65568U 25203D   26194.86954329  .00000019  00000+0  63107-5 0  9991
2 65568  81.3029 346.0799 0009290 116.4481 243.7629 13.83199875 42382
PRAETORIAN SDA_606      
1 65569U 25203E   26194.85471699  .00000026  00000+0  12645-4 0  9993
2 65569  81.3065 346.3311 0007140 119.1667 241.0204 13.83200038 42377
PRAETORIAN SDA_607      
1 65570U 25203F   26194.84561583  .00000113  00000+0  91495-4 0  9993
2 65570  81.3051 345.9612 0009932 117.8870 242.3293 13.83758472 42399
PRAETORIAN SDA_608      
1 65571U 25203G   26194.82819979  .00000029  00000+0  15178-4 0  9997
2 65571  81.3018 346.1415 0007028 123.4328 236.7501 13.83819314 42372
PRAETORIAN SDA_609      
1 65572U 25203H   26194.82556476  .00000191  00000+0  16081-3 0  9991
2 65572  81.3061 346.1224 0007891 118.1688 242.0266 13.84211611 42383
PRAETORIAN SDA_610      
1 65573U 25203J   26193.29046330  .00000038  00000+0  23402-4 0  9991
2 65573  81.3018 347.5253 0007754 126.0491 234.1385 13.83769639 42168
PRAETORIAN SDA_611      
1 65574U 25203K   26194.81850325  .00000096  00000+0  76434-4 0  9995
2 65574  81.3022 346.2948 0006664 127.0091 233.1675 13.83311247 42368
PRAETORIAN SDA_612      
1 65575U 25203L   26194.84712633  .00000136  00000+0  10958-3 0  9991
2 65575  81.3041 345.7895 0010313 118.1535 242.0665 13.85040701 42404
PRAETORIAN SDA_613      
1 65576U 25203M   26194.83571341  .00000031  00000+0  17238-4 0  9993
2 65576  81.3011 346.2969 0006748 117.9616 242.2224 13.82767561 42369
PRAETORIAN SDA_614      
1 65577U 25203N   26194.84133898  .00000018  00000+0  51305-5 0  9995
2 65577  81.3025 345.8792 0008196 116.3588 243.8412 13.84778479 42407
PRAETORIAN SDA_615      
1 65578U 25203P   26194.82478484  .00000081  00000+0  61298-4 0  9998
2 65578  81.3037 345.8755 0010142 117.0954 243.1238 13.84438317 42390
PRAETORIAN SDA_616      
1 65579U 25203Q   26194.81851060  .00000143  00000+0  11973-3 0  9996
2 65579  81.3077 346.4583 0006526 125.2525 234.9243 13.83270031 42364
PRAETORIAN SDA_617      
1 65580U 25203R   26194.84238794  .00000034  00000+0  20184-4 0  9998
2 65580  81.3049 346.2648 0008455 116.8216 243.3806 13.83152044 42374
PRAETORIAN SDA_618      
1 65581U 25203S   26194.86420174  .00000133  00000+0  10854-3 0  9998
2 65581  81.3033 345.7701 0010819 120.1097 240.1133 13.84225478 42409
PRAETORIAN SDA_619      
1 65582U 25203T   26194.83890387  .00000154  00000+0  12821-3 0  9992
2 65582  81.3057 346.1210 0009237 117.7067 242.5027 13.83805785 43017
PRAETORIAN SDA_620      
1 65583U 25203U   26194.80108154  .00000112  00000+0  91421-4 0  9992
2 65583  81.3044 346.1871 0008566 114.9140 245.2907 13.83207407 42374
PRAETORIAN SDA_621      
1 65584U 25203V   26194.84073986  .00000014  00000+0  19858-5 0  9997
2 65584  81.3032 346.0517 0008474 112.0196 248.1862 13.83803654 42385
PRAETORIAN SDA_601      
1 65585U 25203W   26194.82357187  .00000079  00000+0  60824-4 0  9993
2 65585  81.3050 346.3941 0006552 127.6742 232.5009 13.83170079 42360
VICTUS HAZE PUMA        
1 69646U 26142A   26194.66617709  .00002127  00000+0  98816-4 0  9997
2 69646  97.4471  91.9874 0025032 271.5686  88.2682 15.20841534  3695
