OBJECT_NAME,OBJECT_ID,EPOCH,MEAN_MOTION,ECCENTRICITY,INCLINATION,RA_OF_ASC_NODE,ARG_OF_PERICENTER,MEAN_ANOMALY,EPHEMERIS_TYPE,CLASSIFICATION_TYPE,NORAD_CAT_ID,ELEMENT_SET_NO,REV_AT_EPOCH,BSTAR,MEAN_MOTION_DOT,MEAN_MOTION_DDOT
SAR-LUPE 2,2007-030A,2026-07-13T20:17:02.575680,15.53581762,.0004721,98.1058,302.6682,207.1327,152.9678,0,U,31797,999,6107,.31071E-3,.197E-3,0
SAPPHIRE,2013-009C,2026-07-13T20:42:11.162016,14.35247349,.0011506,98.4273,13.6866,163.7646,196.3910,0,U,39088,999,70040,.28239E-4,.38E-6,0
PRAETORIAN SDA_602,2025-203A,2026-07-13T20:16:18.909120,13.83887779,.0007031,81.3042,346.0860,120.7068,239.4782,0,U,65565,999,4238,.5847E-5,.18E-6,0
PRAETORIAN SDA_603,2025-203B,2026-07-13T19:13:02.620992,13.83961982,.0010732,81.3048,346.0483,118.3107,241.9134,0,U,65566,999,4238,.70214E-4,.9E-6,0
PRAETORIAN SDA_604,2025-203C,2026-07-13T20:05:48.914016,13.83049978,.0006541,81.3064,346.4681,124.4511,235.7264,0,U,65567,999,4236,.10508E-4,.23E-6,0
PRAETORIAN SDA_605,2025-203D,2026-07-13T20:52:08.540256,13.83199875,.000929,81.3029,346.0799,116.4481,243.7629,0,U,65568,999,4238,.63107E-5,.19E-6,0
PRAETORIAN SDA_606,2025-203E,2026-07-13T20:30:47.547936,13.83200038,.000714,81.3065,346.3311,119.1667,241.0204,0,U,65569,999,4237,.12645E-4,.26E-6,0
PRAETORIAN SDA_607,2025-203F,2026-07-13T20:17:41.207712,13.83758472,.0009932,81.3051,345.9612,117.8870,242.3293,0,U,65570,999,4239,.91495E-4,.113E-5,0
PRAETORIAN SDA_608,2025-203G,2026-07-13T19:52:36.461856,13.83819314,.0007028,81.3018,346.1415,123.4328,236.7501,0,U,65571,999,4237,.15178E-4,.29E-6,0
PRAETORIAN SDA_609,2025-203H,2026-07-13T19:48:48.795264,13.84211611,.0007891,81.3061,346.1224,118.1688,242.0266,0,U,65572,999,4238,.16081E-3,.191E-5,0
PRAETORIAN SDA_610,2025-203J,2026-07-12T06:58:16.029120,13.83769639,.0007754,81.3018,347.5253,126.0491,234.1385,0,U,65573,999,4216,.23402E-4,.38E-6,0
PRAETORIAN SDA_611,2025-203K,2026-07-13T19:38:38.680800,13.83311247,.0006664,81.3022,346.2948,127.0091,233.1675,0,U,65574,999,4236,.76434E-4,.96E-6,0
PRAETORIAN SDA_612,2025-203L,2026-07-13T20:19:51.714912,13.85040701,.0010313,81.3041,345.7895,118.1535,242.0665,0,U,65575,999,4240,.10958E-3,.136E-5,0
PRAETORIAN SDA_613,2025-203M,2026-07-13T20:03:25.638624,13.82767561,.0006748,81.3011,346.2969,117.9616,242.2224,0,U,65576,999,4236,.17238E-4,.31E-6,0
PRAETORIAN SDA_614,2025-203N,2026-07-13T20:11:31.687872,13.84778479,.0008196,81.3025,345.8792,116.3588,243.8412,0,U,65577,999,4240,.51305E-5,.18E-6,0
PRAETORIAN SDA_615,2025-203P,2026-07-13T19:47:41.410176,13.84438317,.0010142,81.3037,345.8755,117.0954,243.1238,0,U,65578,999,4239,.61298E-4,.81E-6,0
PRAETORIAN SDA_616,2025-203Q,2026-07-13T19:38:39.315840,13.83270031,.0006526,81.3077,346.4583,125.2525,234.9243,0,U,65579,999,4236,.11973E-3,.143E-5,0
PRAETORIAN SDA_617,2025-203R,2026-07-13T20:13:02.318016,13.83152044,.0008455,81.3049,346.2648,116.8216,243.3806,0,U,65580,999,4237,.20184E-4,.34E-6,0
PRAETORIAN SDA_618,2025-203S,2026-07-13T20:44:27.030336,13.84225478,.0010819,81.3033,345.7701,120.1097,240.1133,0,U,65581,999,4240,.10854E-3,.133E-5,0
PRAETORIAN SDA_619,2025-203T,2026-07-13T20:08:01.294368,13.83805785,.0009237,81.3057,346.1210,117.7067,242.5027,0,U,65582,999,4301,.12821E-3,.154E-5,0
PRAETORIAN SDA_620,2025-203U,2026-07-13T19:13:33.445056,13.83207407,.0008566,81.3044,346.1871,114.9140,245.2907,0,U,65583,999,4237,.91421E-4,.112E-5,0
PRAETORIAN SDA_621,2025-203V,2026-07-13T20:10:39.923904,13.83803654,.0008474,81.3032,346.0517,112.0196,248.1862,0,U,65584,999,4238,.19858E-5,.14E-6,0
PRAETORIAN SDA_601,2025-203W,2026-07-13T19:45:56.609568,13.83170079,.0006552,81.3050,346.3941,127.6742,232.5009,0,U,65585,999,4236,.60824E-4,.79E-6,0
VICTUS HAZE PUMA,2026-142A,2026-07-13T15:59:17.700576,15.20841534,.0025032,97.4471,91.9874,271.5686,88.2682,0,U,69646,999,369,.98816E-4,.2127E-4,0
